{
  "norad_id": 68328,
  "name": "STARLINK-36245",
  "history": [
    {
      "epoch": "2026-03-31T16:00:01.999584Z",
      "apogee_km": 328.9957195226443,
      "perigee_km": 327.0281354273229,
      "latitude_deg": -45.58239017116867,
      "longitude_deg": 53.1217416764912,
      "height_km": 344.3727573614116,
      "semi_major_axis_km": 6706.148927474984,
      "eccentricity": 0.0001467,
      "inclination_deg": 53.1595,
      "raan_deg": 252.6813,
      "arg_perigee_deg": 85.1064,
      "mean_anomaly_deg": 157.7005,
      "mean_motion_rev_day": 15.808584
    }
  ]
}